{"type": "FeatureCollection", "features": [ {"type": "Feature", "properties": {"norad_id": 60453, "name": "LEGION 4", "group": "resource", "lat": -15.02298831372887, "lon": 17.427011784341417, "alt_km": 513.9776899443959, "timestamp": "2025-12-14T09:36:22.692452+00:00", "meta": {"OBJECT_NAME": "LEGION 4", "OBJECT_ID": "2024-146B", "EPOCH": "2025-12-13T13:08:21.585984", "MEAN_MOTION": 15.15836533, "ECCENTRICITY": 0.00094101, "INCLINATION": 45.0394, "RA_OF_ASC_NODE": 37.5554, "ARG_OF_PERICENTER": 315.2837, "MEAN_ANOMALY": 44.7282, "EPHEMERIS_TYPE": 0, "CLASSIFICATION_TYPE": "U", "NORAD_CAT_ID": 60453, "ELEMENT_SET_NO": 999, "REV_AT_EPOCH": 7270, "BSTAR": 0.0003573693, "MEAN_MOTION_DOT": 6.696e-05, "MEAN_MOTION_DDOT": 0}, "tle": {"line1": "1 60453U 24146B   25347.54747206  .00006696  00000+0  35737-3 0  9995", "line2": "2 60453  45.0394  37.5554 0009410 315.2837  44.7282 15.15836533 72700"}}, "geometry": {"type": "Point", "coordinates": [17.427011784341417, -15.02298831372887]}}, {"type": "Feature", "properties": {"norad_id": 60989, "name": "SENTINEL-2C", "group": "resource", "lat": -81.21817200861781, "lon": 138.26548414860724, "alt_km": 797.188887371708, "timestamp": "2025-12-14T09:36:22.692473+00:00", "meta": {"OBJECT_NAME": "SENTINEL-2C", "OBJECT_ID": "2024-157A", "EPOCH": "2025-12-13T15:33:21.799872", "MEAN_MOTION": 14.30817985, "ECCENTRICITY": 0.00011981, "INCLINATION": 98.5683, "RA_OF_ASC_NODE": 60.1177, "ARG_OF_PERICENTER": 97.2974, "MEAN_ANOMALY": 262.8345, "EPHEMERIS_TYPE": 0, "CLASSIFICATION_TYPE": "U", "NORAD_CAT_ID": 60989, "ELEMENT_SET_NO": 999, "REV_AT_EPOCH": 6645, "BSTAR": 9.484963e-05, "MEAN_MOTION_DOT": 2.05e-06, "MEAN_MOTION_DDOT": 0}, "tle": {"line1": "1 60989U 24157A   25347.64816898  .00000205  00000+0  94850-4 0  9998", "line2": "2 60989  98.5683  60.1177 0001198  97.2974 262.8345 14.30817985 66459"}}, "geometry": {"type": "Point", "coordinates": [138.26548414860724, -81.21817200861781]}}, {"type": "Feature", "properties": {"norad_id": 61735, "name": "IONOSFERA-M 1", "group": "resource", "lat": 49.20310375079799, "lon": 48.50293198024004, "alt_km": 811.9369005258568, "timestamp": "2025-12-14T09:36:22.692485+00:00", "meta": {"OBJECT_NAME": "IONOSFERA-M 1", "OBJECT_ID": "2024-199A", "EPOCH": "2025-12-13T16:07:08.410368", "MEAN_MOTION": 14.22714289, "ECCENTRICITY": 9.112e-05, "INCLINATION": 98.7403, "RA_OF_ASC_NODE": 217.5127, "ARG_OF_PERICENTER": 19.8923, "MEAN_ANOMALY": 340.229, "EPHEMERIS_TYPE": 0, "CLASSIFICATION_TYPE": "U", "NORAD_CAT_ID": 61735, "ELEMENT_SET_NO": 999, "REV_AT_EPOCH": 10132, "BSTAR": 6.1681503e-05, "MEAN_MOTION_DOT": 9.4e-07, "MEAN_MOTION_DDOT": 0}, "tle": {"line1": "1 61735U 24199A   25347.67162512  .00000094  00000+0  61682-4 0  9997", "line2": "2 61735  98.7403 217.5127 0000911  19.8923 340.2290 14.22714289101320"}}, "geometry": {"type": "Point", "coordinates": [48.50293198024004, 49.20310375079799]}}, {"type": "Feature", "properties": {"norad_id": 61736, "name": "IONOSFERA-M 2", "group": "resource", "lat": -46.76595977340523, "lon": -132.43469113331662, "alt_km": 824.0114121948236, "timestamp": "2025-12-14T09:36:22.692496+00:00", "meta": {"OBJECT_NAME": "IONOSFERA-M 2", "OBJECT_ID": "2024-199B", "EPOCH": "2025-12-13T15:15:45.425088", "MEAN_MOTION": 14.22716445, "ECCENTRICITY": 0.00016696, "INCLINATION": 98.7402, "RA_OF_ASC_NODE": 217.3898, "ARG_OF_PERICENTER": 109.2993, "MEAN_ANOMALY": 250.8365, "EPHEMERIS_TYPE": 0, "CLASSIFICATION_TYPE": "U", "NORAD_CAT_ID": 61736, "ELEMENT_SET_NO": 999, "REV_AT_EPOCH": 10444, "BSTAR": 6.3346491e-05, "MEAN_MOTION_DOT": 9.8e-07, "MEAN_MOTION_DDOT": 0}, "tle": {"line1": "1 61736U 24199B   25347.63594242  .00000098  00000+0  63346-4 0  9996", "line2": "2 61736  98.7402 217.3898 0001669 109.2993 250.8365 14.22716445104446"}}, "geometry": {"type": "Point", "coordinates": [-132.43469113331662, -46.76595977340523]}}, {"type": "Feature", "properties": {"norad_id": 63772, "name": "BIOMASS", "group": "resource", "lat": 51.58779364843454, "lon": 163.07771686838058, "alt_km": 663.3938526595839, "timestamp": "2025-12-14T09:36:22.692506+00:00", "meta": {"OBJECT_NAME": "BIOMASS", "OBJECT_ID": "2025-090A", "EPOCH": "2025-12-13T12:05:45.708864", "MEAN_MOTION": 14.67543484, "ECCENTRICITY": 0.00011494, "INCLINATION": 98.0701, "RA_OF_ASC_NODE": 172.5025, "ARG_OF_PERICENTER": 79.7434, "MEAN_ANOMALY": 280.39, "EPHEMERIS_TYPE": 0, "CLASSIFICATION_TYPE": "U", "NORAD_CAT_ID": 63772, "ELEMENT_SET_NO": 999, "REV_AT_EPOCH": 3345, "BSTAR": 0.00037658617, "MEAN_MOTION_DOT": 2.088e-05, "MEAN_MOTION_DDOT": 0}, "tle": {"line1": "1 63772U 25090A   25347.50400126  .00002088  00000+0  37659-3 0  9990", "line2": "2 63772  98.0701 172.5025 0001149  79.7434 280.3900 14.67543484 33456"}}, "geometry": {"type": "Point", "coordinates": [163.07771686838058, 51.58779364843454]}}, {"type": "Feature", "properties": {"norad_id": 64694, "name": "GOSAT-GW (IBUKI GW)", "group": "resource", "lat": -78.68752909440013, "lon": 58.910510893029766, "alt_km": 677.2446687476122, "timestamp": "2025-12-14T09:36:22.692516+00:00", "meta": {"OBJECT_NAME": "GOSAT-GW (IBUKI GW)", "OBJECT_ID": "2025-141A", "EPOCH": "2025-12-13T16:03:09.154944", "MEAN_MOTION": 14.67560935, "ECCENTRICITY": 0.00014863, "INCLINATION": 98.0422, "RA_OF_ASC_NODE": 283.165, "ARG_OF_PERICENTER": 84.9741, "MEAN_ANOMALY": 275.1633, "EPHEMERIS_TYPE": 0, "CLASSIFICATION_TYPE": "U", "NORAD_CAT_ID": 64694, "ELEMENT_SET_NO": 999, "REV_AT_EPOCH": 2463, "BSTAR": 0.0003010938, "MEAN_MOTION_DOT": 1.661e-05, "MEAN_MOTION_DDOT": 0}, "tle": {"line1": "1 64694U 25141A   25347.66885596  .00001661  00000+0  30109-3 0  9995", "line2": "2 64694  98.0422 283.1650 0001486  84.9741 275.1633 14.67560935 24631"}}, "geometry": {"type": "Point", "coordinates": [58.910510893029766, -78.68752909440013]}}, {"type": "Feature", "properties": {"norad_id": 64876, "name": "IONOSFERA-M 3", "group": "resource", "lat": -10.792007303285908, "lon": -48.13200474284039, "alt_km": 824.0803112494013, "timestamp": "2025-12-14T09:36:22.692526+00:00", "meta": {"OBJECT_NAME": "IONOSFERA-M 3", "OBJECT_ID": "2025-155A", "EPOCH": "2025-12-13T15:04:27.470208", "MEAN_MOTION": 14.21441239, "ECCENTRICITY": 0.00022158, "INCLINATION": 98.5783, "RA_OF_ASC_NODE": 309.469, "ARG_OF_PERICENTER": 58.7266, "MEAN_ANOMALY": 301.4129, "EPHEMERIS_TYPE": 0, "CLASSIFICATION_TYPE": "U", "NORAD_CAT_ID": 64876, "ELEMENT_SET_NO": 999, "REV_AT_EPOCH": 2004, "BSTAR": 7.7519114e-05, "MEAN_MOTION_DOT": 1.27e-06, "MEAN_MOTION_DDOT": 0}, "tle": {"line1": "1 64876U 25155A   25347.62809572  .00000127  00000+0  77519-4 0  9991", "line2": "2 64876  98.5783 309.4690 0002215  58.7266 301.4129 14.21441239 20045"}}, "geometry": {"type": "Point", "coordinates": [-48.13200474284039, -10.792007303285908]}}, {"type": "Feature", "properties": {"norad_id": 64877, "name": "IONOSFERA-M 4", "group": "resource", "lat": 9.867236693781528, "lon": 131.64331692599816, "alt_km": 822.4047448399879, "timestamp": "2025-12-14T09:36:22.692536+00:00", "meta": {"OBJECT_NAME": "IONOSFERA-M 4", "OBJECT_ID": "2025-155B", "EPOCH": "2025-12-13T15:54:57.114720", "MEAN_MOTION": 14.21442448, "ECCENTRICITY": 0.00015807, "INCLINATION": 98.5782, "RA_OF_ASC_NODE": 309.4227, "ARG_OF_PERICENTER": 62.6235, "MEAN_ANOMALY": 297.5104, "EPHEMERIS_TYPE": 0, "CLASSIFICATION_TYPE": "U", "NORAD_CAT_ID": 64877, "ELEMENT_SET_NO": 999, "REV_AT_EPOCH": 2004, "BSTAR": 8.1870786e-05, "MEAN_MOTION_DOT": 1.36e-06, "MEAN_MOTION_DDOT": 0}, "tle": {"line1": "1 64877U 25155B   25347.66316105  .00000136  00000+0  81871-4 0  9997", "line2": "2 64877  98.5782 309.4227 0001580  62.6235 297.5104 14.21442448 20046"}}, "geometry": {"type": "Point", "coordinates": [131.64331692599816, 9.867236693781528]}}, {"type": "Feature", "properties": {"norad_id": 64899, "name": "MICROCARB", "group": "resource", "lat": -81.34660325488942, "lon": 176.14530873310454, "alt_km": 669.1389935932493, "timestamp": "2025-12-14T09:36:22.692546+00:00", "meta": {"OBJECT_NAME": "MICROCARB", "OBJECT_ID": "2025-156A", "EPOCH": "2025-12-13T16:05:09.690720", "MEAN_MOTION": 14.7205901, "ECCENTRICITY": 0.00171983, "INCLINATION": 98.0025, "RA_OF_ASC_NODE": 63.0008, "ARG_OF_PERICENTER": 141.8981, "MEAN_ANOMALY": 218.3446, "EPHEMERIS_TYPE": 0, "CLASSIFICATION_TYPE": "U", "NORAD_CAT_ID": 64899, "ELEMENT_SET_NO": 999, "REV_AT_EPOCH": 2067, "BSTAR": 0.00017554077, "MEAN_MOTION_DOT": 1.056e-05, "MEAN_MOTION_DDOT": 0}, "tle": {"line1": "1 64899U 25156A   25347.67025105  .00001056  00000+0  17554-3 0  9998", "line2": "2 64899  98.0025  63.0008 0017198 141.8981 218.3446 14.72059010 20679"}}, "geometry": {"type": "Point", "coordinates": [176.14530873310454, -81.34660325488942]}}, {"type": "Feature", "properties": {"norad_id": 64900, "name": "CO3D 3", "group": "resource", "lat": -54.75740102830838, "lon": -125.90689821891773, "alt_km": 513.0638533428764, "timestamp": "2025-12-14T09:36:22.692556+00:00", "meta": {"OBJECT_NAME": "CO3D 3", "OBJECT_ID": "2025-156B", "EPOCH": "2025-12-13T16:46:35.865408", "MEAN_MOTION": 15.2020033, "ECCENTRICITY": 0.00013843, "INCLINATION": 97.4344, "RA_OF_ASC_NODE": 64.0523, "ARG_OF_PERICENTER": 93.9049, "MEAN_ANOMALY": 266.2345, "EPHEMERIS_TYPE": 0, "CLASSIFICATION_TYPE": "U", "NORAD_CAT_ID": 64900, "ELEMENT_SET_NO": 999, "REV_AT_EPOCH": 2135, "BSTAR": 0.00015817929, "MEAN_MOTION_DOT": 3.358e-05, "MEAN_MOTION_DDOT": 0}, "tle": {"line1": "1 64900U 25156B   25347.69902622  .00003358  00000+0  15818-3 0  9999", "line2": "2 64900  97.4344  64.0523 0001384  93.9049 266.2345 15.20200330 21357"}}, "geometry": {"type": "Point", "coordinates": [-125.90689821891773, -54.75740102830838]}}]}